start=new Date('2022-07-03T00:00:00.000Z').valueOf();
sats=[{"TLE_LINE1":"1 45575U 20025AW  22183.45656258  .00012228  00000-0  65746-3 0  9998","MEAN_ANOMALY":"228.1751","ARG_OF_PERICENTER":"131.9415","APOAPSIS":"521.602","MEAN_MOTION_DDOT":"0.0000000000000","MEAN_MOTION":"15.15258738","LAUNCH_DATE":"2020-04-22","MEAN_ELEMENT_THEORY":"SGP4","REV_AT_EPOCH":"12275","FILE":"3506647","RA_OF_ASC_NODE":"347.3596","ECCENTRICITY":"0.00020390","ELEMENT_SET_NO":"999","CENTER_NAME":"EARTH","NORAD_CAT_ID":"45575","OBJECT_NAME":"STARLINK-1326","RCS_SIZE":"LARGE","BSTAR":"0.00065746000000","GP_ID":"207264466","COUNTRY_CODE":"US","PERIOD":"95.033","EPHEMERIS_TYPE":"0","OBJECT_ID":"2020-025AW","SITE":"AFETR","TIME_SYSTEM":"UTC","DECAY_DATE":null,"INCLINATION":"52.9992","SEMIMAJOR_AXIS":"6898.330","CLASSIFICATION_TYPE":"U","REF_FRAME":"TEME","OBJECT_TYPE":"PAYLOAD","TLE_LINE2":"2 45575  52.9992 347.3596 0002039 131.9415 228.1751 15.15258738122757","MEAN_MOTION_DOT":"0.00012228","EPOCH":"2022-07-02T10:57:27.006912","PERIAPSIS":"518.789"},{"GP_ID":"207270907","COUNTRY_CODE":"US","PERIOD":"95.592","EPHEMERIS_TYPE":"0","OBJECT_ID":"2020-025AX","SITE":"AFETR","TIME_SYSTEM":"UTC","DECAY_DATE":null,"INCLINATION":"53.0571","CLASSIFICATION_TYPE":"U","REF_FRAME":"TEME","SEMIMAJOR_AXIS":"6925.337","OBJECT_TYPE":"PAYLOAD","MEAN_MOTION_DOT":"0.00002764","EPOCH":"2022-07-02T16:19:19.281792","TLE_LINE2":"2 45576  53.0571 359.0829 0001453  75.1532 284.9618 15.06403716122031","PERIAPSIS":"546.196","MEAN_ANOMALY":"284.9618","TLE_LINE1":"1 45576U 20025AX  22183.68008428  .00002764  00000-0  20433-3 0  9992","ARG_OF_PERICENTER":"75.1532","MEAN_MOTION_DDOT":"0.0000000000000","APOAPSIS":"548.208","MEAN_MOTION":"15.06403716","LAUNCH_DATE":"2020-04-22","MEAN_ELEMENT_THEORY":"SGP4","FILE":"3506655","RA_OF_ASC_NODE":"359.0829","REV_AT_EPOCH":"12203","CENTER_NAME":"EARTH","ELEMENT_SET_NO":"999","ECCENTRICITY":"0.00014530","OBJECT_NAME":"STARLINK-1328","NORAD_CAT_ID":"45576","RCS_SIZE":"LARGE","BSTAR":"0.00020433000000"},{"ARG_OF_PERICENTER":"71.3768","MEAN_ANOMALY":"288.7382","TLE_LINE1":"1 45577U 20025AY  22183.50315833  .00000258  00000-0  36190-4 0  9999","MEAN_MOTION_DDOT":"0.0000000000000","APOAPSIS":"548.227","MEAN_ELEMENT_THEORY":"SGP4","LAUNCH_DATE":"2020-04-22","MEAN_MOTION":"15.06404558","ECCENTRICITY":"0.00014840","ELEMENT_SET_NO":"999","CENTER_NAME":"EARTH","FILE":"3506647","RA_OF_ASC_NODE":"359.8815","REV_AT_EPOCH":"12260","RCS_SIZE":"LARGE","NORAD_CAT_ID":"45577","OBJECT_NAME":"STARLINK-1330","BSTAR":"0.00003619000000","PERIOD":"95.592","GP_ID":"207265468","COUNTRY_CODE":"US","EPHEMERIS_TYPE":"0","OBJECT_ID":"2020-025AY","TIME_SYSTEM":"UTC","SITE":"AFETR","INCLINATION":"53.0567","DECAY_DATE":null,"CLASSIFICATION_TYPE":"U","REF_FRAME":"TEME","SEMIMAJOR_AXIS":"6925.335","OBJECT_TYPE":"PAYLOAD","PERIAPSIS":"546.172","EPOCH":"2022-07-02T12:04:32.879712","MEAN_MOTION_DOT":"0.00000258","TLE_LINE2":"2 45577  53.0567 359.8815 0001484  71.3768 288.7382 15.06404558122601"},{"COUNTRY_CODE":"US","GP_ID":"207265219","PERIOD":"95.592","SITE":"AFETR","TIME_SYSTEM":"UTC","OBJECT_ID":"2020-025AZ","EPHEMERIS_TYPE":"0","SEMIMAJOR_AXIS":"6925.338","CLASSIFICATION_TYPE":"U","REF_FRAME":"TEME","DECAY_DATE":null,"INCLINATION":"53.0554","TLE_LINE2":"2 45578  53.0554 359.7110 0001500  79.6533 280.4625 15.06403416122628","MEAN_MOTION_DOT":"0.00000246","EPOCH":"2022-07-02T12:57:38.188512","PERIAPSIS":"546.164","OBJECT_TYPE":"PAYLOAD","TLE_LINE1":"1 45578U 20025AZ  22183.54002533  .00000246  00000-0  35441-4 0  9999","MEAN_ANOMALY":"280.4625","ARG_OF_PERICENTER":"79.6533","MEAN_MOTION":"15.06403416","LAUNCH_DATE":"2020-04-22","MEAN_ELEMENT_THEORY":"SGP4","APOAPSIS":"548.242","MEAN_MOTION_DDOT":"0.0000000000000","OBJECT_NAME":"STARLINK-1331","NORAD_CAT_ID":"45578","RCS_SIZE":"LARGE","REV_AT_EPOCH":"12262","FILE":"3506647","RA_OF_ASC_NODE":"359.7110","ELEMENT_SET_NO":"999","CENTER_NAME":"EARTH","ECCENTRICITY":"0.00015000","BSTAR":"0.00003544100000"},{"TLE_LINE2":"2 45579  53.0559 319.2440 0001248 112.5447 247.5674 15.06408892122600","MEAN_MOTION_DOT":"0.00000533","EPOCH":"2022-07-02T16:19:21.059040","PERIAPSIS":"546.322","OBJECT_TYPE":"PAYLOAD","SEMIMAJOR_AXIS":"6925.321","CLASSIFICATION_TYPE":"U","REF_FRAME":"TEME","DECAY_DATE":null,"INCLINATION":"53.0559","SITE":"AFETR","TIME_SYSTEM":"UTC","OBJECT_ID":"2020-025BA","EPHEMERIS_TYPE":"0","COUNTRY_CODE":"US","GP_ID":"207270729","PERIOD":"95.592","BSTAR":"0.00005464400000","OBJECT_NAME":"STARLINK-1332","NORAD_CAT_ID":"45579","RCS_SIZE":"LARGE","FILE":"3506655","RA_OF_ASC_NODE":"319.2440","REV_AT_EPOCH":"12260","ELEMENT_SET_NO":"999","ECCENTRICITY":"0.00012480","CENTER_NAME":"EARTH","MEAN_MOTION":"15.06408892","MEAN_ELEMENT_THEORY":"SGP4","LAUNCH_DATE":"2020-04-22","MEAN_MOTION_DDOT":"0.0000000000000","APOAPSIS":"548.051","TLE_LINE1":"1 45579U 20025BA  22183.68010485  .00000533  00000-0  54644-4 0  9995","MEAN_ANOMALY":"247.5674","ARG_OF_PERICENTER":"112.5447"},{"ARG_OF_PERICENTER":"84.1400","MEAN_ANOMALY":"275.9774","TLE_LINE1":"1 45580U 20025BB  22183.48012023  .00000988  00000-0  85227-4 0  9990","MEAN_ELEMENT_THEORY":"SGP4","LAUNCH_DATE":"2020-04-22","MEAN_MOTION":"15.06408874","MEAN_MOTION_DDOT":"0.0000000000000","APOAPSIS":"548.312","RCS_SIZE":"LARGE","NORAD_CAT_ID":"45580","OBJECT_NAME":"STARLINK-1333","ECCENTRICITY":"0.00016260","ELEMENT_SET_NO":"999","CENTER_NAME":"EARTH","FILE":"3506647","RA_OF_ASC_NODE":"9.9787","REV_AT_EPOCH":"12246","BSTAR":"0.00008522700000","PERIOD":"95.592","COUNTRY_CODE":"US","GP_ID":"207264717","TIME_SYSTEM":"UTC","SITE":"AFETR","OBJECT_ID":"2020-025BB","EPHEMERIS_TYPE":"0","REF_FRAME":"TEME","CLASSIFICATION_TYPE":"U","SEMIMAJOR_AXIS":"6925.321","INCLINATION":"53.0562","DECAY_DATE":null,"PERIAPSIS":"546.060","MEAN_MOTION_DOT":"0.00000988","EPOCH":"2022-07-02T11:31:22.387872","TLE_LINE2":"2 45580  53.0562   9.9787 0001626  84.1400 275.9774 15.06408874122466","OBJECT_TYPE":"PAYLOAD"},{"REF_FRAME":"TEME","CLASSIFICATION_TYPE":"U","SEMIMAJOR_AXIS":"6925.344","DECAY_DATE":null,"INCLINATION":"53.0559","MEAN_MOTION_DOT":"0.00001364","EPOCH":"2022-07-02T11:38:00.294432","TLE_LINE2":"2 45581  53.0559 359.9641 0001347  90.3195 269.7948 15.06401627122609","PERIAPSIS":"546.276","OBJECT_TYPE":"PAYLOAD","GP_ID":"207264969","COUNTRY_CODE":"US","PERIOD":"95.592","SITE":"AFETR","TIME_SYSTEM":"UTC","OBJECT_ID":"2020-025BC","EPHEMERIS_TYPE":"0","NORAD_CAT_ID":"45581","OBJECT_NAME":"STARLINK-1335","RCS_SIZE":"LARGE","REV_AT_EPOCH":"12260","FILE":"3506647","RA_OF_ASC_NODE":"359.9641","ECCENTRICITY":"0.00013470","ELEMENT_SET_NO":"999","CENTER_NAME":"EARTH","BSTAR":"0.00011042000000","MEAN_ANOMALY":"269.7948","TLE_LINE1":"1 45581U 20025BC  22183.48472563  .00001364  00000-0  11042-3 0  9992","ARG_OF_PERICENTER":"90.3195","MEAN_MOTION":"15.06401627","MEAN_ELEMENT_THEORY":"SGP4","LAUNCH_DATE":"2020-04-22","MEAN_MOTION_DDOT":"0.0000000000000","APOAPSIS":"548.141"},{"PERIAPSIS":"546.076","MEAN_MOTION_DOT":"0.00000096","EPOCH":"2022-07-02T15:20:56.674176","TLE_LINE2":"2 45582  53.0568 359.2763 0001625  71.5349 288.5817 15.06403935122012","OBJECT_TYPE":"PAYLOAD","REF_FRAME":"TEME","CLASSIFICATION_TYPE":"U","SEMIMAJOR_AXIS":"6925.336","INCLINATION":"53.0568","DECAY_DATE":null,"TIME_SYSTEM":"UTC","SITE":"AFETR","EPHEMERIS_TYPE":"0","OBJECT_ID":"2020-025BD","PERIOD":"95.592","COUNTRY_CODE":"US","GP_ID":"207271010","BSTAR":"0.00002531800000","RCS_SIZE":"LARGE","NORAD_CAT_ID":"45582","OBJECT_NAME":"STARLINK-1337","ELEMENT_SET_NO":"999","ECCENTRICITY":"0.00016250","CENTER_NAME":"EARTH","RA_OF_ASC_NODE":"359.2763","FILE":"3506663","REV_AT_EPOCH":"12201","MEAN_ELEMENT_THEORY":"SGP4","LAUNCH_DATE":"2020-04-22","MEAN_MOTION":"15.06403935","MEAN_MOTION_DDOT":"0.0000000000000","APOAPSIS":"548.327","ARG_OF_PERICENTER":"71.5349","MEAN_ANOMALY":"288.5817","TLE_LINE1":"1 45582U 20025BD  22183.63954484  .00000096  00000-0  25318-4 0  9990"},{"NORAD_CAT_ID":"45583","OBJECT_NAME":"STARLINK-1340","RCS_SIZE":"LARGE","FILE":"3506647","RA_OF_ASC_NODE":"359.9441","REV_AT_EPOCH":"12260","CENTER_NAME":"EARTH","ELEMENT_SET_NO":"999","ECCENTRICITY":"0.00013950","BSTAR":"-0.00000319860000","TLE_LINE1":"1 45583U 20025BE  22183.48841421 -.00000329  00000-0 -31986-5 0  9990","MEAN_ANOMALY":"270.5743","ARG_OF_PERICENTER":"89.5406","MEAN_MOTION":"15.06403489","MEAN_ELEMENT_THEORY":"SGP4","LAUNCH_DATE":"2020-04-22","APOAPSIS":"548.169","MEAN_MOTION_DDOT":"0.0000000000000","SEMIMAJOR_AXIS":"6925.338","REF_FRAME":"TEME","CLASSIFICATION_TYPE":"U","DECAY_DATE":null,"INCLINATION":"53.0586","TLE_LINE2":"2 45583  53.0586 359.9441 0001395  89.5406 270.5743 15.06403489122608","MEAN_MOTION_DOT":"-0.00000329","EPOCH":"2022-07-02T11:43:18.987744","PERIAPSIS":"546.237","OBJECT_TYPE":"PAYLOAD","GP_ID":"207264467","COUNTRY_CODE":"US","PERIOD":"95.592","SITE":"AFETR","TIME_SYSTEM":"UTC","OBJECT_ID":"2020-025BE","EPHEMERIS_TYPE":"0"},{"MEAN_MOTION":"15.06405642","MEAN_ELEMENT_THEORY":"SGP4","LAUNCH_DATE":"2020-04-22","MEAN_MOTION_DDOT":"0.0000000000000","APOAPSIS":"548.242","TLE_LINE1":"1 45584U 20025BF  22183.54276543  .00000132  00000-0  27759-4 0  9997","MEAN_ANOMALY":"279.3656","ARG_OF_PERICENTER":"80.7504","BSTAR":"0.00002775900000","NORAD_CAT_ID":"45584","OBJECT_NAME":"STARLINK-1343","RCS_SIZE":"LARGE","REV_AT_EPOCH":"12261","FILE":"3506647","RA_OF_ASC_NODE":"359.7045","ELEMENT_SET_NO":"999","CENTER_NAME":"EARTH","ECCENTRICITY":"0.00015100","SITE":"AFETR","TIME_SYSTEM":"UTC","EPHEMERIS_TYPE":"0","OBJECT_ID":"2020-025BF","COUNTRY_CODE":"US","GP_ID":"207264218","PERIOD":"95.592","TLE_LINE2":"2 45584  53.0564 359.7045 0001510  80.7504 279.3656 15.06405642122618","MEAN_MOTION_DOT":"0.00000132","EPOCH":"2022-07-02T13:01:34.933152","PERIAPSIS":"546.151","OBJECT_TYPE":"PAYLOAD","SEMIMAJOR_AXIS":"6925.331","CLASSIFICATION_TYPE":"U","REF_FRAME":"TEME","DECAY_DATE":null,"INCLINATION":"53.0564"}];
